GLOBALSTAR M063         
1 26081U 00008A   25013.80284073 -.00000093  00000+0 -14840-3 0  9991
2 26081  51.9931 158.1633 0004900  30.8277 124.6651 11.86168569139250
GLOBALSTAR M062         
1 26082U 00008B   25013.88946568 -.00000074  00000+0  17670-3 0  9996
2 26082  51.9819 189.5223 0007815 135.7707  17.1016 12.43457948477421
GLOBALSTAR M064         
1 26084U 00008D   25013.82061990 -.00000025  00000+0  82638-3 0  9991
2 26084  52.0018 258.7673 0002279  98.8566 261.2524 11.88528906148742
GLOBALSTAR M065         
1 31571U 07020A   25013.85382826 -.00000116  00000+0 -69416-4 0  9998
2 31571  51.9917 336.0067 0010333 327.0968  50.1835 12.61990986813927
GLOBALSTAR M069         
1 31573U 07020C   25013.91961168 -.00000045  00000+0  35265-3 0  9993
2 31573  51.9960 296.6604 0000851  74.2312 327.6408 12.53309400814973
GLOBALSTAR M072         
1 31574U 07020D   25013.78879334 -.00000066  00000+0  24197-3 0  9997
2 31574  52.0091  42.9731 0000736  74.1677  97.2876 11.91772019813057
GLOBALSTAR M071         
1 31576U 07020F   25013.96664207 -.00000065  00000+0  25730-3 0  9993
2 31576  52.0077 302.9752 0000958 103.5514 335.8670 12.18246209476143
